start=new Date('2022-08-25T00:00:00.000Z').valueOf();
sats=[{"REF_FRAME":"TEME","COUNTRY_CODE":"US","APOAPSIS":"548.256","MEAN_MOTION_DDOT":"0.0000000000000","OBJECT_TYPE":"PAYLOAD","EPHEMERIS_TYPE":"0","REV_AT_EPOCH":"7147","OBJECT_NAME":"STARLINK-2494","BSTAR":"0.00008815200000","ELEMENT_SET_NO":"999","INCLINATION":"53.0533","EPOCH":"2022-08-24T17:35:47.426784","PERIAPSIS":"546.181","RCS_SIZE":"LARGE","NORAD_CAT_ID":"48487","SEMIMAJOR_AXIS":"6925.353","TLE_LINE1":"1 48487U 21040BM  22236.73318781  .00001032  00000-0  88152-4 0  9995","TIME_SYSTEM":"UTC","CENTER_NAME":"EARTH","DECAY_DATE":null,"MEAN_MOTION":"15.06398404","MEAN_MOTION_DOT":"0.00001032","LAUNCH_DATE":"2021-05-09","MEAN_ELEMENT_THEORY":"SGP4","CLASSIFICATION_TYPE":"U","FILE":"3546663","MEAN_ANOMALY":"297.0317","RA_OF_ASC_NODE":"245.9222","ARG_OF_PERICENTER":"63.0824","SITE":"AFETR","GP_ID":"210934166","ECCENTRICITY":"0.00014980","OBJECT_ID":"2021-040BM","PERIOD":"95.592","TLE_LINE2":"2 48487  53.0533 245.9222 0001498  63.0824 297.0317 15.06398404 71471"},{"CLASSIFICATION_TYPE":"U","FILE":"3546350","MEAN_MOTION":"15.06393912","MEAN_MOTION_DOT":"0.00000546","CENTER_NAME":"EARTH","DECAY_DATE":null,"MEAN_ELEMENT_THEORY":"SGP4","LAUNCH_DATE":"2021-05-15","PERIOD":"95.593","TLE_LINE2":"2 48553  53.0538 178.1134 0001772  66.5367 293.5808 15.06393912 70254","OBJECT_ID":"2021-041A","RA_OF_ASC_NODE":"178.1134","MEAN_ANOMALY":"293.5808","SITE":"AFETR","ECCENTRICITY":"0.00017720","GP_ID":"210901571","ARG_OF_PERICENTER":"66.5367","OBJECT_TYPE":"PAYLOAD","EPHEMERIS_TYPE":"0","BSTAR":"0.00005553800000","REV_AT_EPOCH":"7025","OBJECT_NAME":"STARLINK-2063","REF_FRAME":"TEME","APOAPSIS":"548.459","MEAN_MOTION_DDOT":"0.0000000000000","COUNTRY_CODE":"US","SEMIMAJOR_AXIS":"6925.367","TLE_LINE1":"1 48553U 21041A   22236.24572546  .00000546  00000-0  55538-4 0  9998","NORAD_CAT_ID":"48553","TIME_SYSTEM":"UTC","INCLINATION":"53.0538","ELEMENT_SET_NO":"999","RCS_SIZE":"LARGE","EPOCH":"2022-08-24T05:53:50.679744","PERIAPSIS":"546.005"},{"TIME_SYSTEM":"UTC","TLE_LINE1":"1 48554U 21041B   22236.25310381  .00002545  00000-0  18969-3 0  9994","SEMIMAJOR_AXIS":"6925.356","NORAD_CAT_ID":"48554","RCS_SIZE":"LARGE","PERIAPSIS":"546.201","EPOCH":"2022-08-24T06:04:28.169184","INCLINATION":"53.0536","ELEMENT_SET_NO":"999","BSTAR":"0.00018969000000","REV_AT_EPOCH":"7025","OBJECT_NAME":"STARLINK-2139","EPHEMERIS_TYPE":"0","OBJECT_TYPE":"PAYLOAD","APOAPSIS":"548.240","MEAN_MOTION_DDOT":"0.0000000000000","COUNTRY_CODE":"US","REF_FRAME":"TEME","TLE_LINE2":"2 48554  53.0536 178.0902 0001472  85.9503 274.1654 15.06397697 70257","PERIOD":"95.592","OBJECT_ID":"2021-041B","ECCENTRICITY":"0.00014720","GP_ID":"210900820","SITE":"AFETR","ARG_OF_PERICENTER":"85.9503","MEAN_ANOMALY":"274.1654","RA_OF_ASC_NODE":"178.0902","FILE":"3546350","CLASSIFICATION_TYPE":"U","MEAN_ELEMENT_THEORY":"SGP4","LAUNCH_DATE":"2021-05-15","MEAN_MOTION_DOT":"0.00002545","MEAN_MOTION":"15.06397697","DECAY_DATE":null,"CENTER_NAME":"EARTH"},{"ARG_OF_PERICENTER":"66.4791","SITE":"AFETR","GP_ID":"210901070","ECCENTRICITY":"0.00016200","RA_OF_ASC_NODE":"187.9577","MEAN_ANOMALY":"293.6368","OBJECT_ID":"2021-041C","PERIOD":"95.592","TLE_LINE2":"2 48555  53.0546 187.9577 0001620  66.4791 293.6368 15.06394414 70111","MEAN_ELEMENT_THEORY":"SGP4","LAUNCH_DATE":"2021-05-15","CENTER_NAME":"EARTH","DECAY_DATE":null,"MEAN_MOTION":"15.06394414","MEAN_MOTION_DOT":"-0.00000075","CLASSIFICATION_TYPE":"U","FILE":"3546350","EPOCH":"2022-08-24T06:45:36.401184","PERIAPSIS":"546.109","RCS_SIZE":"LARGE","ELEMENT_SET_NO":"999","INCLINATION":"53.0546","TIME_SYSTEM":"UTC","NORAD_CAT_ID":"48555","SEMIMAJOR_AXIS":"6925.366","TLE_LINE1":"1 48555U 21041C   22236.28167131 -.00000075  00000-0  13851-4 0  9994","COUNTRY_CODE":"US","APOAPSIS":"548.353","MEAN_MOTION_DDOT":"0.0000000000000","REF_FRAME":"TEME","REV_AT_EPOCH":"7011","OBJECT_NAME":"STARLINK-2145","BSTAR":"0.00001385100000","OBJECT_TYPE":"PAYLOAD","EPHEMERIS_TYPE":"0"},{"GP_ID":"210901318","ECCENTRICITY":"0.00015760","SITE":"AFETR","ARG_OF_PERICENTER":"64.6479","RA_OF_ASC_NODE":"188.0126","MEAN_ANOMALY":"295.4673","TLE_LINE2":"2 48556  53.0538 188.0126 0001576  64.6479 295.4673 15.06395295 70115","PERIOD":"95.592","OBJECT_ID":"2021-041D","MEAN_ELEMENT_THEORY":"SGP4","LAUNCH_DATE":"2021-05-15","MEAN_MOTION_DOT":"0.00001389","MEAN_MOTION":"15.06395295","DECAY_DATE":null,"CENTER_NAME":"EARTH","FILE":"3546350","CLASSIFICATION_TYPE":"U","RCS_SIZE":"LARGE","PERIAPSIS":"546.137","EPOCH":"2022-08-24T06:29:40.812864","INCLINATION":"53.0538","ELEMENT_SET_NO":"999","TIME_SYSTEM":"UTC","TLE_LINE1":"1 48556U 21041D   22236.27061126  .00001389  00000-0  11217-3 0  9992","SEMIMAJOR_AXIS":"6925.363","NORAD_CAT_ID":"48556","APOAPSIS":"548.319","MEAN_MOTION_DDOT":"0.0000000000000","COUNTRY_CODE":"US","REF_FRAME":"TEME","BSTAR":"0.00011217000000","REV_AT_EPOCH":"7011","OBJECT_NAME":"STARLINK-2151","EPHEMERIS_TYPE":"0","OBJECT_TYPE":"PAYLOAD"},{"FILE":"3546663","CLASSIFICATION_TYPE":"U","MEAN_ELEMENT_THEORY":"SGP4","LAUNCH_DATE":"2021-05-15","MEAN_MOTION_DOT":"0.00000362","MEAN_MOTION":"15.06393484","DECAY_DATE":null,"CENTER_NAME":"EARTH","TLE_LINE2":"2 48557  53.0536 175.5977 0001508  75.3536 284.7620 15.06393484 70332","PERIOD":"95.593","OBJECT_ID":"2021-041E","ECCENTRICITY":"0.00015080","GP_ID":"210934174","SITE":"AFETR","ARG_OF_PERICENTER":"75.3536","MEAN_ANOMALY":"284.7620","RA_OF_ASC_NODE":"175.5977","BSTAR":"0.00004321900000","OBJECT_NAME":"STARLINK-2155","REV_AT_EPOCH":"7033","EPHEMERIS_TYPE":"0","OBJECT_TYPE":"PAYLOAD","APOAPSIS":"548.278","MEAN_MOTION_DDOT":"0.0000000000000","COUNTRY_CODE":"US","REF_FRAME":"TEME","TIME_SYSTEM":"UTC","TLE_LINE1":"1 48557U 21041E   22236.80599464  .00000362  00000-0  43219-4 0  9991","SEMIMAJOR_AXIS":"6925.369","NORAD_CAT_ID":"48557","RCS_SIZE":"LARGE","PERIAPSIS":"546.189","EPOCH":"2022-08-24T19:20:37.936896","INCLINATION":"53.0536","ELEMENT_SET_NO":"999"},{"APOAPSIS":"548.290","MEAN_MOTION_DDOT":"0.0000000000000","COUNTRY_CODE":"US","REF_FRAME":"TEME","BSTAR":"-0.00004099300000","REV_AT_EPOCH":"6947","OBJECT_NAME":"STARLINK-2166","OBJECT_TYPE":"PAYLOAD","EPHEMERIS_TYPE":"0","RCS_SIZE":"LARGE","EPOCH":"2022-08-24T19:15:19.021536","PERIAPSIS":"546.219","INCLINATION":"53.0553","ELEMENT_SET_NO":"999","TIME_SYSTEM":"UTC","SEMIMAJOR_AXIS":"6925.389","TLE_LINE1":"1 48558U 21041F   22236.80230349 -.00000892  00000-0 -40993-4 0  9992","NORAD_CAT_ID":"48558","LAUNCH_DATE":"2021-05-15","MEAN_ELEMENT_THEORY":"SGP4","MEAN_MOTION":"15.06386725","MEAN_MOTION_DOT":"-0.00000892","CENTER_NAME":"EARTH","DECAY_DATE":null,"CLASSIFICATION_TYPE":"U","FILE":"3546663","SITE":"AFETR","ECCENTRICITY":"0.00014950","GP_ID":"210932422","ARG_OF_PERICENTER":"82.6308","RA_OF_ASC_NODE":"175.6258","MEAN_ANOMALY":"277.4851","PERIOD":"95.593","TLE_LINE2":"2 48558  53.0553 175.6258 0001495  82.6308 277.4851 15.06386725 69476","OBJECT_ID":"2021-041F"},{"LAUNCH_DATE":"2021-05-15","MEAN_ELEMENT_THEORY":"SGP4","MEAN_MOTION":"15.06394359","MEAN_MOTION_DOT":"-0.00000189","CENTER_NAME":"EARTH","DECAY_DATE":null,"CLASSIFICATION_TYPE":"U","FILE":"3546663","SITE":"AFETR","ECCENTRICITY":"0.00014160","GP_ID":"210932673","ARG_OF_PERICENTER":"75.0761","MEAN_ANOMALY":"285.0384","RA_OF_ASC_NODE":"175.4517","PERIOD":"95.592","TLE_LINE2":"2 48559  53.0547 175.4517 0001416  75.0761 285.0384 15.06394359 70333","OBJECT_ID":"2021-041G","APOAPSIS":"548.211","MEAN_MOTION_DDOT":"0.0000000000000","COUNTRY_CODE":"US","REF_FRAME":"TEME","BSTAR":"0.00000618900000","OBJECT_NAME":"STARLINK-2167","REV_AT_EPOCH":"7033","OBJECT_TYPE":"PAYLOAD","EPHEMERIS_TYPE":"0","RCS_SIZE":"LARGE","EPOCH":"2022-08-24T20:07:03.288000","PERIAPSIS":"546.250","INCLINATION":"53.0547","ELEMENT_SET_NO":"999","TIME_SYSTEM":"UTC","SEMIMAJOR_AXIS":"6925.366","TLE_LINE1":"1 48559U 21041G   22236.83823250 -.00000189  00000-0  61890-5 0  9993","NORAD_CAT_ID":"48559"},{"REF_FRAME":"TEME","COUNTRY_CODE":"US","APOAPSIS":"548.237","MEAN_MOTION_DDOT":"0.0000000000000","EPHEMERIS_TYPE":"0","OBJECT_TYPE":"PAYLOAD","REV_AT_EPOCH":"7070","OBJECT_NAME":"STARLINK-2186","BSTAR":"0.00008121200000","ELEMENT_SET_NO":"999","INCLINATION":"53.0546","PERIAPSIS":"546.256","EPOCH":"2022-08-24T10:55:07.749984","RCS_SIZE":"LARGE","NORAD_CAT_ID":"48561","TLE_LINE1":"1 48561U 21041J   22236.45495081  .00000928  00000-0  81212-4 0  9990","SEMIMAJOR_AXIS":"6925.382","TIME_SYSTEM":"UTC","DECAY_DATE":null,"CENTER_NAME":"EARTH","MEAN_MOTION_DOT":"0.00000928","MEAN_MOTION":"15.06389149","LAUNCH_DATE":"2021-05-15","MEAN_ELEMENT_THEORY":"SGP4","FILE":"3546663","CLASSIFICATION_TYPE":"U","RA_OF_ASC_NODE":"147.4512","MEAN_ANOMALY":"273.0477","ARG_OF_PERICENTER":"87.0676","ECCENTRICITY":"0.00014300","GP_ID":"210933924","SITE":"AFETR","OBJECT_ID":"2021-041J","TLE_LINE2":"2 48561  53.0546 147.4512 0001430  87.0676 273.0477 15.06389149 70705","PERIOD":"95.593"},{"BSTAR":"0.00000467060000","REV_AT_EPOCH":"7025","OBJECT_NAME":"STARLINK-2187","OBJECT_TYPE":"PAYLOAD","EPHEMERIS_TYPE":"0","APOAPSIS":"548.363","MEAN_MOTION_DDOT":"0.0000000000000","COUNTRY_CODE":"US","REF_FRAME":"TEME","TIME_SYSTEM":"UTC","SEMIMAJOR_AXIS":"6925.369","TLE_LINE1":"1 48562U 21041K   22236.24941918 -.00000212  00000-0  46706-5 0  9990","NORAD_CAT_ID":"48562","RCS_SIZE":"LARGE","EPOCH":"2022-08-24T05:59:09.817152","PERIAPSIS":"546.104","INCLINATION":"53.0544","ELEMENT_SET_NO":"999","CLASSIFICATION_TYPE":"U","FILE":"3546350","MEAN_ELEMENT_THEORY":"SGP4","LAUNCH_DATE":"2021-05-15","MEAN_MOTION":"15.06393422","MEAN_MOTION_DOT":"-0.00000212","CENTER_NAME":"EARTH","DECAY_DATE":null,"PERIOD":"95.593","TLE_LINE2":"2 48562  53.0544 178.0926 0001631  80.2257 279.8916 15.06393422 70257","OBJECT_ID":"2021-041K","SITE":"AFETR","ECCENTRICITY":"0.00016310","GP_ID":"210901572","ARG_OF_PERICENTER":"80.2257","RA_OF_ASC_NODE":"178.0926","MEAN_ANOMALY":"279.8916"}];
